[{"OBJECT_NAME":"STARLINK-31730","OBJECT_ID":"2024-074X","EPOCH":"2025-08-23T14:12:36.820512","MEAN_MOTION":15.27573426,"ECCENTRICITY":0.00012811,"INCLINATION":43.0047,"RA_OF_ASC_NODE":22.6345,"ARG_OF_PERICENTER":265.7069,"MEAN_ANOMALY":94.3637,"EPHEMERIS_TYPE":0,"CLASSIFICATION_TYPE":"U","NORAD_CAT_ID":59555,"ELEMENT_SET_NO":999,"REV_AT_EPOCH":7571,"BSTAR":0.00011503429,"MEAN_MOTION_DOT":2.904e-5,"MEAN_MOTION_DDOT":0},{"OBJECT_NAME":"STARLINK-31718","OBJECT_ID":"2024-074Y","EPOCH":"2025-08-23T17:04:16.682016","MEAN_MOTION":15.27572525,"ECCENTRICITY":0.00010351,"INCLINATION":43.0025,"RA_OF_ASC_NODE":21.8087,"ARG_OF_PERICENTER":270.7248,"MEAN_ANOMALY":89.3485,"EPHEMERIS_TYPE":0,"CLASSIFICATION_TYPE":"U","NORAD_CAT_ID":59556,"ELEMENT_SET_NO":999,"REV_AT_EPOCH":7573,"BSTAR":3.9922142e-5,"MEAN_MOTION_DOT":8.36e-6,"MEAN_MOTION_DDOT":0},{"OBJECT_NAME":"STARLINK-31747","OBJECT_ID":"2024-076A","EPOCH":"2025-08-23T18:08:09.667680","MEAN_MOTION":15.27582674,"ECCENTRICITY":0.00013158,"INCLINATION":43.0039,"RA_OF_ASC_NODE":36.2409,"ARG_OF_PERICENTER":277.8993,"MEAN_ANOMALY":82.1709,"EPHEMERIS_TYPE":0,"CLASSIFICATION_TYPE":"U","NORAD_CAT_ID":59564,"ELEMENT_SET_NO":999,"REV_AT_EPOCH":7634,"BSTAR":0.00016202643,"MEAN_MOTION_DOT":4.199e-5,"MEAN_MOTION_DDOT":0},{"OBJECT_NAME":"STARLINK-31388","OBJECT_ID":"2024-076B","EPOCH":"2025-08-23T18:54:11.154240","MEAN_MOTION":15.27582744,"ECCENTRICITY":0.00012062,"INCLINATION":43.0039,"RA_OF_ASC_NODE":46.8783,"ARG_OF_PERICENTER":268.881,"MEAN_ANOMALY":91.1903,"EPHEMERIS_TYPE":0,"CLASSIFICATION_TYPE":"U","NORAD_CAT_ID":59565,"ELEMENT_SET_NO":999,"REV_AT_EPOCH":7623,"BSTAR":0.00010236857,"MEAN_MOTION_DOT":2.556e-5,"MEAN_MOTION_DDOT":0},{"OBJECT_NAME":"STARLINK-31332","OBJECT_ID":"2024-076C","EPOCH":"2025-08-23T21:14:23.379648","MEAN_MOTION":15.27575962,"ECCENTRICITY":0.00011733,"INCLINATION":43.0013,"RA_OF_ASC_NODE":45.8665,"ARG_OF_PERICENTER":270.1376,"MEAN_ANOMALY":89.9341,"EPHEMERIS_TYPE":0,"CLASSIFICATION_TYPE":"U","NORAD_CAT_ID":59566,"ELEMENT_SET_NO":999,"REV_AT_EPOCH":7625,"BSTAR":6.7957516e-5,"MEAN_MOTION_DOT":1.608e-5,"MEAN_MOTION_DDOT":0},{"OBJECT_NAME":"STARLINK-31689","OBJECT_ID":"2024-076D","EPOCH":"2025-08-23T12:29:00.083040","MEAN_MOTION":15.2757126,"ECCENTRICITY":0.00014354,"INCLINATION":43.0044,"RA_OF_ASC_NODE":44.8358,"ARG_OF_PERICENTER":271.7159,"MEAN_ANOMALY":88.3528,"EPHEMERIS_TYPE":0,"CLASSIFICATION_TYPE":"U","NORAD_CAT_ID":59567,"ELEMENT_SET_NO":999,"REV_AT_EPOCH":7623,"BSTAR":8.8440334e-5,"MEAN_MOTION_DOT":2.172e-5,"MEAN_MOTION_DDOT":0},{"OBJECT_NAME":"STARLINK-31471","OBJECT_ID":"2024-076E","EPOCH":"2025-08-23T20:11:24.619488","MEAN_MOTION":15.27771458,"ECCENTRICITY":0.00016907,"INCLINATION":43.001,"RA_OF_ASC_NODE":46.4021,"ARG_OF_PERICENTER":281.5478,"MEAN_ANOMALY":78.5184,"EPHEMERIS_TYPE":0,"CLASSIFICATION_TYPE":"U","NORAD_CAT_ID":59568,"ELEMENT_SET_NO":999,"REV_AT_EPOCH":7615,"BSTAR":0.0006235845,"MEAN_MOTION_DOT":0.00017038,"MEAN_MOTION_DDOT":0},{"OBJECT_NAME":"STARLINK-31470","OBJECT_ID":"2024-076F","EPOCH":"2025-08-23T18:36:22.063968","MEAN_MOTION":15.27580869,"ECCENTRICITY":0.00014443,"INCLINATION":43.0053,"RA_OF_ASC_NODE":43.3093,"ARG_OF_PERICENTER":276.3463,"MEAN_ANOMALY":83.7224,"EPHEMERIS_TYPE":0,"CLASSIFICATION_TYPE":"U","NORAD_CAT_ID":59569,"ELEMENT_SET_NO":999,"REV_AT_EPOCH":7618,"BSTAR":6.2562249e-5,"MEAN_MOTION_DOT":1.46e-5,"MEAN_MOTION_DDOT":0},{"OBJECT_NAME":"STARLINK-31587","OBJECT_ID":"2024-076G","EPOCH":"2025-08-23T18:48:37.701216","MEAN_MOTION":15.2757999,"ECCENTRICITY":0.00010694,"INCLINATION":43.003,"RA_OF_ASC_NODE":46.8316,"ARG_OF_PERICENTER":282.7181,"MEAN_ANOMALY":77.3551,"EPHEMERIS_TYPE":0,"CLASSIFICATION_TYPE":"U","NORAD_CAT_ID":59570,"ELEMENT_SET_NO":999,"REV_AT_EPOCH":7625,"BSTAR":0.00013402842,"MEAN_MOTION_DOT":3.428e-5,"MEAN_MOTION_DDOT":0},{"OBJECT_NAME":"STARLINK-31606","OBJECT_ID":"2024-076H","EPOCH":"2025-08-23T22:00:03.000096","MEAN_MOTION":15.27560166,"ECCENTRICITY":0.00016532,"INCLINATION":43.004,"RA_OF_ASC_NODE":45.5061,"ARG_OF_PERICENTER":270.8094,"MEAN_ANOMALY":341.6133,"EPHEMERIS_TYPE":0,"CLASSIFICATION_TYPE":"U","NORAD_CAT_ID":59571,"ELEMENT_SET_NO":999,"REV_AT_EPOCH":586,"BSTAR":0.002389844,"MEAN_MOTION_DOT":0.00066052,"MEAN_MOTION_DDOT":0},{"OBJECT_NAME":"STARLINK-31666","OBJECT_ID":"2024-076J","EPOCH":"2025-08-23T18:27:48.436704","MEAN_MOTION":15.27582058,"ECCENTRICITY":0.0001044,"INCLINATION":43.0045,"RA_OF_ASC_NODE":39.778,"ARG_OF_PERICENTER":269.8552,"MEAN_ANOMALY":90.218,"EPHEMERIS_TYPE":0,"CLASSIFICATION_TYPE":"U","NORAD_CAT_ID":59572,"ELEMENT_SET_NO":999,"REV_AT_EPOCH":7631,"BSTAR":9.1820255e-5,"MEAN_MOTION_DOT":2.266e-5,"MEAN_MOTION_DDOT":0},{"OBJECT_NAME":"STARLINK-31683","OBJECT_ID":"2024-076K","EPOCH":"2025-08-23T18:17:10.483296","MEAN_MOTION":15.27585547,"ECCENTRICITY":8.609e-5,"INCLINATION":43.0018,"RA_OF_ASC_NODE":46.6594,"ARG_OF_PERICENTER":266.0865,"MEAN_ANOMALY":93.9889,"EPHEMERIS_TYPE":0,"CLASSIFICATION_TYPE":"U","NORAD_CAT_ID":59573,"ELEMENT_SET_NO":999,"REV_AT_EPOCH":7623,"BSTAR":-1.8371352e-5,"MEAN_MOTION_DOT":-7.67e-6,"MEAN_MOTION_DDOT":0},{"OBJECT_NAME":"STARLINK-31751","OBJECT_ID":"2024-076L","EPOCH":"2025-08-23T20:39:26.046432","MEAN_MOTION":15.27582919,"ECCENTRICITY":9.192e-5,"INCLINATION":43.0026,"RA_OF_ASC_NODE":46.5602,"ARG_OF_PERICENTER":269.3994,"MEAN_ANOMALY":90.6752,"EPHEMERIS_TYPE":0,"CLASSIFICATION_TYPE":"U","NORAD_CAT_ID":59574,"ELEMENT_SET_NO":999,"REV_AT_EPOCH":7624,"BSTAR":7.9622062e-5,"MEAN_MOTION_DOT":1.93e-5,"MEAN_MOTION_DDOT":0},{"OBJECT_NAME":"STARLINK-31510","OBJECT_ID":"2024-076M","EPOCH":"2025-08-23T20:14:13.939296","MEAN_MOTION":15.27580592,"ECCENTRICITY":0.00015995,"INCLINATION":43.0043,"RA_OF_ASC_NODE":42.9654,"ARG_OF_PERICENTER":294.493,"MEAN_ANOMALY":65.5755,"EPHEMERIS_TYPE":0,"CLASSIFICATION_TYPE":"U","NORAD_CAT_ID":59575,"ELEMENT_SET_NO":999,"REV_AT_EPOCH":7628,"BSTAR":6.1767434e-5,"MEAN_MOTION_DOT":1.438e-5,"MEAN_MOTION_DDOT":0},{"OBJECT_NAME":"STARLINK-31663","OBJECT_ID":"2024-076N","EPOCH":"2025-08-23T20:33:53.381376","MEAN_MOTION":15.2758953,"ECCENTRICITY":0.00013787,"INCLINATION":43.0046,"RA_OF_ASC_NODE":46.5175,"ARG_OF_PERICENTER":295.7535,"MEAN_ANOMALY":64.3174,"EPHEMERIS_TYPE":0,"CLASSIFICATION_TYPE":"U","NORAD_CAT_ID":59576,"ELEMENT_SET_NO":999,"REV_AT_EPOCH":7624,"BSTAR":0.00010056895,"MEAN_MOTION_DOT":2.507e-5,"MEAN_MOTION_DDOT":0},{"OBJECT_NAME":"STARLINK-31692","OBJECT_ID":"2024-076P","EPOCH":"2025-08-23T18:41:13.481664","MEAN_MOTION":15.27575033,"ECCENTRICITY":0.00012171,"INCLINATION":43.0015,"RA_OF_ASC_NODE":46.7646,"ARG_OF_PERICENTER":270.113,"MEAN_ANOMALY":89.9582,"EPHEMERIS_TYPE":0,"CLASSIFICATION_TYPE":"U","NORAD_CAT_ID":59577,"ELEMENT_SET_NO":999,"REV_AT_EPOCH":7623,"BSTAR":9.062249e-6,"MEAN_MOTION_DOT":-1.3e-7,"MEAN_MOTION_DDOT":0}]
