STARLINK-31730          
1 59555U 24074X   25235.59209283  .00002904  00000+0  11503-3 0  9998
2 59555  43.0047  22.6345 0001281 265.7069  94.3637 15.27573426 75712
STARLINK-31718          
1 59556U 24074Y   25235.71130419  .00000836  00000+0  39922-4 0  9995
2 59556  43.0025  21.8087 0001035 270.7248  89.3485 15.27572525 75731
STARLINK-31747          
1 59564U 24076A   25235.75566745  .00004199  00000+0  16203-3 0  9997
2 59564  43.0039  36.2409 0001315 277.8993  82.1709 15.27582674 76343
STARLINK-31388          
1 59565U 24076B   25235.78762910  .00002556  00000+0  10237-3 0  9999
2 59565  43.0039  46.8783 0001206 268.8810  91.1903 15.27582744 76235
STARLINK-31332          
1 59566U 24076C   25235.88499282  .00001608  00000+0  67958-4 0  9990
2 59566  43.0013  45.8665 0001173 270.1376  89.9341 15.27575962 76259
STARLINK-31689          
1 59567U 24076D   25235.52013985  .00002172  00000+0  88440-4 0  9990
2 59567  43.0044  44.8358 0001435 271.7159  88.3528 15.27571260 76234
STARLINK-31471          
1 59568U 24076E   25235.84125717  .00017038  00000+0  62358-3 0  9999
2 59568  43.0010  46.4021 0001690 281.5478  78.5184 15.27771458 76150
STARLINK-31470          
1 59569U 24076F   25235.77525537  .00001460  00000+0  62562-4 0  9996
2 59569  43.0053  43.3093 0001444 276.3463  83.7224 15.27580869 76186
STARLINK-31587          
1 59570U 24076G   25235.78376969  .00003428  00000+0  13403-3 0  9997
2 59570  43.0030  46.8316 0001069 282.7181  77.3551 15.27579990 76253
STARLINK-31606          
1 59571U 24076H   25235.91670139  .00066052  00000+0  23898-2 0  9999
2 59571  43.0040  45.5061 0001653 270.8094 341.6133 15.27560166  5865
STARLINK-31666          
1 59572U 24076J   25235.76931061  .00002266  00000+0  91820-4 0  9996
2 59572  43.0045  39.7780 0001044 269.8552  90.2180 15.27582058 76316
STARLINK-31683          
1 59573U 24076K   25235.76192689 -.00000767  00000+0 -18371-4 0  9998
2 59573  43.0018  46.6594 0000860 266.0865  93.9889 15.27585547 76231
STARLINK-31751          
1 59574U 24076L   25235.86071813  .00001930  00000+0  79622-4 0  9992
2 59574  43.0026  46.5602 0000919 269.3994  90.6752 15.27582919 76248
STARLINK-31510          
1 59575U 24076M   25235.84321689  .00001438  00000+0  61767-4 0  9994
2 59575  43.0043  42.9654 0001599 294.4930  65.5755 15.27580592 76282
STARLINK-31663          
1 59576U 24076N   25235.85686784  .00002507  00000+0  10057-3 0  9999
2 59576  43.0046  46.5175 0001378 295.7535  64.3174 15.27589530 76243
STARLINK-31692          
1 59577U 24076P   25235.77862826 -.00000013  00000+0  90622-5 0  9993
2 59577  43.0015  46.7646 0001217 270.1130  89.9582 15.27575033 76233
